UNKNOWN                 
1 81838U          25191.72690196  .00002821  00000+0  67332-3 0  9992
2 81838  67.7629 310.6511 0037688 172.2904 258.2257 14.54605262610778
UNKNOWN                 
1 81844U          25201.27818977  .00003499  00000+0  12953-2 0  9990
2 81844  82.9108  41.5042 0063784 239.0717 120.4191 14.30996540602072
UNKNOWN                 
1 81845U          25201.47826073  .00001957  00000+0  22469-3 0  9990
2 81845  97.6820  33.8128 0091068  63.0445 327.9209 14.84000352627971
UNKNOWN                 
1 81864U          25200.31766267  .00001230  00000+0  52295-3 0  9995
2 81864  65.6735  48.8045 0757650  77.0615 291.3874 13.31795466531330
UNKNOWN                 
1 81865U 87062    25201.57491054  .00000983  00000+0  80617-3 0  9990
2 81865  82.8065 140.7035 0065886  57.5371  64.5692 13.87469803588417
UNKNOWN                 
1 81893U 70025    25200.69245734  .00000750  00000+0  81783-3 0  9993
2 81893 100.0280 176.1464 0019696 286.3131  73.5850 13.76300676583986
UNKNOWN                 
1 81899U          25200.66805895  .00000348  00000+0  92735-3 0  9994
2 81899 102.4169 276.2399 0183497 161.9350 198.8390 13.19824497559718
UNKNOWN                 
1 81921U          25197.25034309  .00000860  00000+0  36419-3 0  9990
2 81921  65.7046  32.3309 0857543 178.7099 181.6452 13.14426288  6130
UNKNOWN                 
1 81946U 87079    25201.62645940  .00000418  00000+0  15526-2 0  9998
2 81946  66.4203  71.7080 0667546  61.6718 331.7941 12.42582832529851
UNKNOWN                 
1 81947U          25200.77246188  .00002726  00000+0  25891-3 0  9995
2 81947  66.0736 214.7192 0398062 232.0963 124.3530 14.50523952609838
UNKNOWN                 
1 81964U          25201.56923342  .00000128  00000+0  15137-3 0  9992
2 81964  66.5837 259.2710 0037833 195.2153 164.7792 13.95679354593781
UNKNOWN                 
1 81969U          25200.05658868  .00007387  00000+0  48832-3 0  9990
2 81969  86.6817 216.8086 0006177  12.4943 347.6446 15.07228745418059
UNKNOWN                 
1 81995U          25196.60410299  .00007498  00000+0  15140-2 0  9996
2 81995  65.7471 155.8682 0518928  11.3298 349.8942 14.01313208583172
UNKNOWN                 
1 82043U          25200.88422757  .00003184  00000+0  89619-3 0  9990
2 82043  97.9143   2.0524 0235496 161.5647 199.4256 14.31430238552977
UNKNOWN                 
1 82051U          25201.50149346  .00002579  00000+0  89743-3 0  9994
2 82051  98.7534 285.0923 0093382 328.6457  30.9179 14.33885109551588
UNKNOWN                 
1 82073U          25201.49053034  .00001138  00000+0  30403-3 0  9993
2 82073  97.7616 291.4730 0210386  11.0110 349.5579 14.37774854554240
UNKNOWN                 
1 82139U          25200.12251106  .00001780  00000+0  91823-3 0  9991
2 82139  99.0353 266.2716 0085033  97.8727 263.2108 14.14543866459386
UNKNOWN                 
1 82162U          25200.22143288  .00002716  00000+0  41708-2 0  9995
2 82162 100.4798 116.4849 0040930 228.0861 131.6778 13.52273694484490
UNKNOWN                 
1 82180U          25200.38799752  .00004861  00000+0  67692-3 0  9999
2 82180  65.6569 340.0964 0343175 290.4647  65.9922 14.45563031580568
UNKNOWN                 
1 82189U          25195.10089876  .00000185  00000+0  73785-4 0  9996
2 82189  74.0363 326.3178 0016559 197.3045 162.7545 14.35070666610665
UNKNOWN                 
1 82199U          25200.66634186  .00000376  00000+0  31366-3 0  9995
2 82199  82.9684 343.6958 0038524  92.5016 279.7791 13.85589439589460
UNKNOWN                 
1 82205U          25199.54333744  .00001217  00000+0  38183-3 0  9992
2 82205  63.0107 302.7985 0494053 277.6832  76.8398 13.92233732587501
UNKNOWN                 
1 82223U          25190.09651224  .00001441  00000+0  80870-3 0  9998
2 82223  99.3330  70.0413 0071670  61.8047 299.0337 14.10984053426693
UNKNOWN                 
1 82250U          25196.97097402  .00001964  00000+0  10631-2 0  9990
2 82250  98.9108 103.1539 0069696 257.2499 165.1235 14.12484837595486
UNKNOWN                 
1 82272U          25195.40761749  .00000192  00000+0  73320-3 0  9990
2 82272  67.5287 114.7994 0759259 203.5448 152.9022 12.33400871253275
UNKNOWN                 
1 82295U          25195.34707451  .00000802  00000+0  31077-3 0  9999
2 82295  66.6182 186.2540 0128009 325.0683  34.2062 14.30818974558066
UNKNOWN                 
1 82303U          25201.56120464  .00015418  00000+0  14526-1 0  9991
2 82303  81.9118 127.4523 0131766  18.6733 101.3027 13.77397743494385
UNKNOWN                 
1 82311U          25199.60702141  .00000506  00000+0  77658-3 0  9998
2 82311  99.4467 260.0447 0107638 319.2763  40.0364 13.54299387530405
UNKNOWN                 
1 82363U          25197.59708838 -.00000191  00000+0 -19594-3 0  9997
2 82363  66.9365 153.3213 0464579 260.5874  94.2379 13.15456441270641
UNKNOWN                 
1 82369U 99025    25201.32803263  .00000249  00000+0  19900-3 0  9996
2 82369  98.9062 220.7001 0083889  21.4969 338.9685 13.98065415536854
UNKNOWN                 
1 82381U          25201.40239260  .00010071  00000+0  15555-2 0  9999
2 82381  98.4092  60.3190 0008469 244.6070 115.4261 14.73503527489362
UNKNOWN                 
1 82402U          25201.48845780  .00003279  00000+0  25333-3 0  9999
2 82402  86.6606 218.1611 0007203 350.0864  10.0225 15.01188167432667
UNKNOWN                 
1 82432U 93036    25194.20672651  .00001068  00000+0  23536-3 0  9996
2 82432  74.0065 271.2940 0055759 112.3082 248.4007 14.57728017460676
UNKNOWN                 
1 82448U          25200.48806457  .00004480  00000+0  34498-3 0  9993
2 82448  85.8722 277.3407 0011218  75.5587 284.6889 15.01363102415085
UNKNOWN                 
1 82453U          25201.57954125  .00000020  00000+0  48252-3 0  9995
2 82453 102.1503 158.2000 0094062 114.4023 246.6890 12.39687145528071
UNKNOWN                 
1 82458U          25201.27065408  .00002303  00000+0  10781-2 0  9995
2 82458  66.5131 201.9762 0042947 118.4049 242.1382 14.21544416589355
UNKNOWN                 
1 82484U          25200.32756428  .00000248  00000+0  41324-3 0  9992
2 82484  99.3698 229.3485 0043775 205.3060 154.5934 13.55724888570797
UNKNOWN                 
1 82494U 93036    25201.64616781  .00009758  00000+0  12929-2 0  9990
2 82494  74.0106 309.2215 0008332 101.2894 258.9219 14.79957777 63468
UNKNOWN                 
1 82500U          25196.61068608  .00001726  00000+0  81731-3 0  9991
2 82500  70.9666 321.1561 0123946 344.7466  14.9933 14.17070810597671
UNKNOWN                 
1 82524U          25201.05545346  .00003380  00000+0  11298-2 0  9999
2 82524  73.2833 100.3825 0139576 233.3264 189.3732 14.32514929556168
UNKNOWN                 
1 82529U          25197.52408222  .00000964  00000+0  15491-2 0  9995
2 82529  99.7942 285.6088 0236614 244.7554 131.4423 13.40964635569748
UNKNOWN                 
1 82545U          25193.90789180 -.00000053  00000+0 -26999-3 0  9993
2 82545  64.8840  56.4180 0182313 319.2040  39.5356 11.30806409421636
UNKNOWN                 
1 82560U          25201.28770091  .00000560  00000+0  49368-3 0  9998
2 82560  99.9780 133.2747 0011343 341.3842 171.8919 13.90115335591652
UNKNOWN                 
1 82597U          25201.63658720  .00001429  00000+0  50884-3 0  9991
2 82597  66.7693 169.7935 0087028  54.7727 306.1481 14.35018698608155
UNKNOWN                 
1 82617U          25201.56351185  .00000452  00000+0  12503-3 0  9992
2 82617  74.0272 156.0709 0037790 137.1590 223.2526 14.49124501615799
UNKNOWN                 
1 82627U          25200.90689358  .00000828  00000+0  21502-2 0  9991
2 82627  82.4771 352.6165 0013065 120.6531  37.9202 13.16063658 67271
UNKNOWN                 
1 82642U          25197.49747466  .00000570  00000+0  34213-3 0  9990
2 82642  98.9759 109.1877 0136732 295.0608  63.6419 14.06449576595156
UNKNOWN                 
1 82683U 99057    25201.02791350  .00001054  00000+0  41237-3 0  9993
2 82683  98.1872 280.8495 0213409 102.3208 260.1949 14.19623761441599
UNKNOWN                 
1 82693U          25197.61559464  .00001728  00000+0  20582-2 0  9998
2 82693 100.5307 147.5615 0047521  36.1094 324.3242 13.68563672533353
UNKNOWN                 
1 82698U          25199.64698271  .00000523  00000+0  36252-3 0  9992
2 82698  61.6096 184.1161 0688790 234.7778 118.6876 13.28851393518825
UNKNOWN                 
1 82708U          25196.23132596  .00000641  00000+0  26274-2 0  9992
2 82708 102.1749  24.8419 0058832 230.9311 128.6537 12.90218944504106
UNKNOWN                 
1 82729U          25200.28953083  .00000867  00000+0  30496-2 0  9999
2 82729  67.9688  38.9840 0828196 111.4429 257.6913 12.17601873517374
UNKNOWN                 
1 82739U          25200.94641654  .00001173  00000+0  10093-2 0  9993
2 82739  99.0755   2.4661 0173176 323.6305 195.3665 13.82055294585969
UNKNOWN                 
1 82741U          25201.42095143  .00001877  00000+0  21051-2 0  9993
2 82741 102.8496 190.2188 0196265 232.1658 126.1568 13.65154372577240
UNKNOWN                 
1 82778U          25200.00000000  .05017678 -28900-4  81487-2 0  9999
2 82778   7.0078  95.8563 0345837  87.2429   7.4765 15.43625335 25355
UNKNOWN                 
1 82783U          25196.80467268 -.00000483  00000+0 -14365-2 0  9999
2 82783  90.3309  33.4426 0024081 151.3676 208.8779 13.08809794484747
UNKNOWN                 
1 82798U          25196.07412148  .00001270  00000+0  56462-3 0  9999
2 82798  82.9514 312.4503 0029236 262.7150 275.4948 14.22047584290948
UNKNOWN                 
1 82820U          25201.35184884  .00002396  00000+0  87361-3 0  9998
2 82820  99.7804 343.1036 0051371  71.0708 289.6031 14.33462372604799
UNKNOWN                 
1 82829U          25199.28420799  .00000097  00000+0  38477-2 0  9992
2 82829  65.0949 295.1790 0165503   5.5557  25.1848 11.29099472469432
